{"fetched_at":"2026-07-18T06:28:10.739Z","source":"https://celestrak.org/NORAD/elements/gp.php?NAME=HULIANWANG&FORMAT=JSON","constellation":"guowang","records":[{"OBJECT_NAME":"HULIANWANG DIGUI-108","OBJECT_ID":"2025-285D","EPOCH":"2026-07-17T21:34:58.416672","CLASSIFICATION_TYPE":"U","MEAN_MOTION":13.29325999,"ECCENTRICITY":0.00009644,"INCLINATION":50.0056,"RA_OF_ASC_NODE":35.8486,"ARG_OF_PERICENTER":47.6987,"MEAN_ANOMALY":312.3967,"EPHEMERIS_TYPE":0,"NORAD_CAT_ID":66918,"ELEMENT_SET_NO":999,"REV_AT_EPOCH":3014,"BSTAR":0.000054459193,"MEAN_MOTION_DOT":-9.9e-7,"MEAN_MOTION_DDOT":0},{"OBJECT_NAME":"HULIANWANG DIGUI-109","OBJECT_ID":"2025-285E","EPOCH":"2026-07-17T21:22:48.305568","CLASSIFICATION_TYPE":"U","MEAN_MOTION":13.29316729,"ECCENTRICITY":0.00009204,"INCLINATION":50.0086,"RA_OF_ASC_NODE":35.8497,"ARG_OF_PERICENTER":56.6531,"MEAN_ANOMALY":303.4429,"EPHEMERIS_TYPE":0,"NORAD_CAT_ID":66919,"ELEMENT_SET_NO":999,"REV_AT_EPOCH":3015,"BSTAR":0.000035331975,"MEAN_MOTION_DOT":-0.00000108,"MEAN_MOTION_DDOT":0},{"OBJECT_NAME":"HULIANWANG DIGUI-110","OBJECT_ID":"2025-285F","EPOCH":"2026-07-17T21:10:58.487232","CLASSIFICATION_TYPE":"U","MEAN_MOTION":13.29326598,"ECCENTRICITY":0.00008926,"INCLINATION":50.0118,"RA_OF_ASC_NODE":35.8643,"ARG_OF_PERICENTER":48.6427,"MEAN_ANOMALY":311.4521,"EPHEMERIS_TYPE":0,"NORAD_CAT_ID":66920,"ELEMENT_SET_NO":999,"REV_AT_EPOCH":3014,"BSTAR":0.000048016469,"MEAN_MOTION_DOT":-0.00000102,"MEAN_MOTION_DDOT":0},{"OBJECT_NAME":"HULIANWANG DIGUI-111","OBJECT_ID":"2025-285G","EPOCH":"2026-07-17T19:10:44.412960","CLASSIFICATION_TYPE":"U","MEAN_MOTION":13.29326028,"ECCENTRICITY":0.00009015,"INCLINATION":50.0133,"RA_OF_ASC_NODE":36.1208,"ARG_OF_PERICENTER":48.7182,"MEAN_ANOMALY":311.3768,"EPHEMERIS_TYPE":0,"NORAD_CAT_ID":66921,"ELEMENT_SET_NO":999,"REV_AT_EPOCH":3013,"BSTAR":0.000014973,"MEAN_MOTION_DOT":-0.00000117,"MEAN_MOTION_DDOT":0},{"OBJECT_NAME":"HULIANWANG DIGUI-112","OBJECT_ID":"2025-285H","EPOCH":"2026-07-17T18:58:39.024480","CLASSIFICATION_TYPE":"U","MEAN_MOTION":13.29325901,"ECCENTRICITY":0.00009512,"INCLINATION":50.0097,"RA_OF_ASC_NODE":36.0123,"ARG_OF_PERICENTER":45.6572,"MEAN_ANOMALY":314.4378,"EPHEMERIS_TYPE":0,"NORAD_CAT_ID":66922,"ELEMENT_SET_NO":999,"REV_AT_EPOCH":3013,"BSTAR":0.000015986021,"MEAN_MOTION_DOT":-0.00000117,"MEAN_MOTION_DDOT":0},{"OBJECT_NAME":"HULIANWANG DIGUI-113","OBJECT_ID":"2025-285J","EPOCH":"2026-07-17T22:23:17.585952","CLASSIFICATION_TYPE":"U","MEAN_MOTION":13.29324249,"ECCENTRICITY":0.00009482,"INCLINATION":50.0105,"RA_OF_ASC_NODE":35.4471,"ARG_OF_PERICENTER":45.6362,"MEAN_ANOMALY":314.4588,"EPHEMERIS_TYPE":0,"NORAD_CAT_ID":66923,"ELEMENT_SET_NO":999,"REV_AT_EPOCH":3015,"BSTAR":2.53383e-7,"MEAN_MOTION_DOT":-0.00000124,"MEAN_MOTION_DDOT":0},{"OBJECT_NAME":"HULIANWANG DIGUI-114","OBJECT_ID":"2025-287A","EPOCH":"2026-07-17T03:13:36.042816","CLASSIFICATION_TYPE":"U","MEAN_MOTION":13.24413489,"ECCENTRICITY":0.00022799,"INCLINATION":86.4928,"RA_OF_ASC_NODE":272.2479,"ARG_OF_PERICENTER":97.9373,"MEAN_ANOMALY":262.202,"EPHEMERIS_TYPE":0,"NORAD_CAT_ID":66953,"ELEMENT_SET_NO":999,"REV_AT_EPOCH":2930,"BSTAR":0.000079421966,"MEAN_MOTION_DOT":4.9e-7,"MEAN_MOTION_DDOT":0},{"OBJECT_NAME":"HULIANWANG DIGUI-115","OBJECT_ID":"2025-287B","EPOCH":"2026-07-17T15:43:50.445408","CLASSIFICATION_TYPE":"U","MEAN_MOTION":13.24401007,"ECCENTRICITY":0.0002566,"INCLINATION":86.4944,"RA_OF_ASC_NODE":272.1014,"ARG_OF_PERICENTER":94.9091,"MEAN_ANOMALY":265.2336,"EPHEMERIS_TYPE":0,"NORAD_CAT_ID":66954,"ELEMENT_SET_NO":999,"REV_AT_EPOCH":2937,"BSTAR":0.000035842079,"MEAN_MOTION_DOT":3e-7,"MEAN_MOTION_DDOT":0},{"OBJECT_NAME":"HULIANWANG DIGUI-116","OBJECT_ID":"2025-287C","EPOCH":"2026-07-17T22:48:32.040576","CLASSIFICATION_TYPE":"U","MEAN_MOTION":13.24413244,"ECCENTRICITY":0.00023757,"INCLINATION":86.4884,"RA_OF_ASC_NODE":271.8608,"ARG_OF_PERICENTER":95.3541,"MEAN_ANOMALY":264.7864,"EPHEMERIS_TYPE":0,"NORAD_CAT_ID":66955,"ELEMENT_SET_NO":999,"REV_AT_EPOCH":2941,"BSTAR":0.000057074552,"MEAN_MOTION_DOT":3.9e-7,"MEAN_MOTION_DDOT":0},{"OBJECT_NAME":"HULIANWANG DIGUI-117","OBJECT_ID":"2025-287D","EPOCH":"2026-07-17T22:37:42.165696","CLASSIFICATION_TYPE":"U","MEAN_MOTION":13.24412891,"ECCENTRICITY":0.00008913,"INCLINATION":86.4945,"RA_OF_ASC_NODE":271.9937,"ARG_OF_PERICENTER":67.5097,"MEAN_ANOMALY":292.6131,"EPHEMERIS_TYPE":0,"NORAD_CAT_ID":66956,"ELEMENT_SET_NO":999,"REV_AT_EPOCH":2941,"BSTAR":0.000078694193,"MEAN_MOTION_DOT":4.8e-7,"MEAN_MOTION_DDOT":0},{"OBJECT_NAME":"HULIANWANG DIGUI-118","OBJECT_ID":"2025-287E","EPOCH":"2026-07-17T04:18:54.996480","CLASSIFICATION_TYPE":"U","MEAN_MOTION":13.24412337,"ECCENTRICITY":0.0002333,"INCLINATION":86.4921,"RA_OF_ASC_NODE":272.1917,"ARG_OF_PERICENTER":97.4509,"MEAN_ANOMALY":262.689,"EPHEMERIS_TYPE":0,"NORAD_CAT_ID":66957,"ELEMENT_SET_NO":999,"REV_AT_EPOCH":2931,"BSTAR":0.000081010653,"MEAN_MOTION_DOT":4.9e-7,"MEAN_MOTION_DDOT":0},{"OBJECT_NAME":"HULIANWANG DIGUI-119","OBJECT_ID":"2025-295A","EPOCH":"2026-07-17T14:30:01.679040","CLASSIFICATION_TYPE":"U","MEAN_MOTION":13.29324687,"ECCENTRICITY":0.0001122,"INCLINATION":50.0037,"RA_OF_ASC_NODE":276.692,"ARG_OF_PERICENTER":200.5145,"MEAN_ANOMALY":159.5682,"EPHEMERIS_TYPE":0,"NORAD_CAT_ID":67059,"ELEMENT_SET_NO":999,"REV_AT_EPOCH":2954,"BSTAR":0.00008768,"MEAN_MOTION_DOT":-8.3e-7,"MEAN_MOTION_DDOT":0},{"OBJECT_NAME":"HULIANWANG DIGUI-120","OBJECT_ID":"2025-295B","EPOCH":"2026-07-17T21:19:01.165152","CLASSIFICATION_TYPE":"U","MEAN_MOTION":13.29324579,"ECCENTRICITY":0.0001154,"INCLINATION":50.0041,"RA_OF_ASC_NODE":275.5368,"ARG_OF_PERICENTER":202.0623,"MEAN_ANOMALY":158.02,"EPHEMERIS_TYPE":0,"NORAD_CAT_ID":67060,"ELEMENT_SET_NO":999,"REV_AT_EPOCH":2958,"BSTAR":0.000078439498,"MEAN_MOTION_DOT":-8.8e-7,"MEAN_MOTION_DDOT":0},{"OBJECT_NAME":"HULIANWANG DIGUI-121","OBJECT_ID":"2025-295C","EPOCH":"2026-07-17T14:18:00.179424","CLASSIFICATION_TYPE":"U","MEAN_MOTION":13.29325766,"ECCENTRICITY":0.0001149,"INCLINATION":50.0003,"RA_OF_ASC_NODE":276.5839,"ARG_OF_PERICENTER":197.8948,"MEAN_ANOMALY":162.1883,"EPHEMERIS_TYPE":0,"NORAD_CAT_ID":67061,"ELEMENT_SET_NO":999,"REV_AT_EPOCH":2954,"BSTAR":0.000047852,"MEAN_MOTION_DOT":-0.00000102,"MEAN_MOTION_DDOT":0},{"OBJECT_NAME":"HULIANWANG DIGUI-122","OBJECT_ID":"2025-295D","EPOCH":"2026-07-17T15:42:06.115680","CLASSIFICATION_TYPE":"U","MEAN_MOTION":13.29324542,"ECCENTRICITY":0.00011309,"INCLINATION":50.0036,"RA_OF_ASC_NODE":276.2921,"ARG_OF_PERICENTER":198.9451,"MEAN_ANOMALY":161.1379,"EPHEMERIS_TYPE":0,"NORAD_CAT_ID":67062,"ELEMENT_SET_NO":999,"REV_AT_EPOCH":2955,"BSTAR":0.000091543041,"MEAN_MOTION_DOT":-8.2e-7,"MEAN_MOTION_DDOT":0},{"OBJECT_NAME":"HULIANWANG DIGUI-123","OBJECT_ID":"2025-295E","EPOCH":"2026-07-17T13:41:53.856672","CLASSIFICATION_TYPE":"U","MEAN_MOTION":13.29324219,"ECCENTRICITY":0.0001048,"INCLINATION":50.0037,"RA_OF_ASC_NODE":276.522,"ARG_OF_PERICENTER":199.9149,"MEAN_ANOMALY":160.1683,"EPHEMERIS_TYPE":0,"NORAD_CAT_ID":67063,"ELEMENT_SET_NO":999,"REV_AT_EPOCH":2954,"BSTAR":0.00010352,"MEAN_MOTION_DOT":-7.6e-7,"MEAN_MOTION_DDOT":0}]}
