HULIANWANG DIGUI-108    
1 66918U 25285D   26198.89928723 -.00000099  00000+0  54459-4 0  9995
2 66918  50.0056  35.8486 0000964  47.6987 312.3967 13.29325999 30143
HULIANWANG DIGUI-109    
1 66919U 25285E   26198.89083687 -.00000108  00000+0  35332-4 0  9997
2 66919  50.0086  35.8497 0000920  56.6531 303.4429 13.29316729 30152
HULIANWANG DIGUI-110    
1 66920U 25285F   26198.88262138 -.00000102  00000+0  48016-4 0  9995
2 66920  50.0118  35.8643 0000892  48.6427 311.4521 13.29326598 30142
HULIANWANG DIGUI-111    
1 66921U 25285G   26198.79912515 -.00000117  00000+0  14973-4 0  9998
2 66921  50.0133  36.1208 0000901  48.7182 311.3768 13.29326028 30130
HULIANWANG DIGUI-112    
1 66922U 25285H   26198.79072945 -.00000117  00000+0  15986-4 0  9998
2 66922  50.0097  36.0123 0000951  45.6572 314.4378 13.29325901 30139
HULIANWANG DIGUI-113    
1 66923U 25285J   26198.93284243 -.00000124  00000+0  25338-6 0  9993
2 66923  50.0105  35.4471 0000948  45.6362 314.4588 13.29324249 30151
HULIANWANG DIGUI-114    
1 66953U 25287A   26198.13444494  .00000049  00000+0  79422-4 0  9992
2 66953  86.4928 272.2479 0002279  97.9373 262.2020 13.24413489 29306
HULIANWANG DIGUI-115    
1 66954U 25287B   26198.65544497  .00000030  00000+0  35842-4 0  9992
2 66954  86.4944 272.1014 0002566  94.9091 265.2336 13.24401007 29375
HULIANWANG DIGUI-116    
1 66955U 25287C   26198.95037084  .00000039  00000+0  57075-4 0  9996
2 66955  86.4884 271.8608 0002375  95.3541 264.7864 13.24413244 29418
HULIANWANG DIGUI-117    
1 66956U 25287D   26198.94284914  .00000048  00000+0  78694-4 0  9992
2 66956  86.4945 271.9937 0000891  67.5097 292.6131 13.24412891 29415
HULIANWANG DIGUI-118    
1 66957U 25287E   26198.17980320  .00000049  00000+0  81011-4 0  9990
2 66957  86.4921 272.1917 0002333  97.4509 262.6890 13.24412337 29317
HULIANWANG DIGUI-119    
1 67059U 25295A   26198.60418610 -.00000083  00000+0  87680-4 0  9996
2 67059  50.0037 276.6920 0001122 200.5145 159.5682 13.29324687 29540
HULIANWANG DIGUI-120    
1 67060U 25295B   26198.88820793 -.00000088  00000+0  78439-4 0  9994
2 67060  50.0041 275.5368 0001154 202.0623 158.0200 13.29324579 29588
HULIANWANG DIGUI-121    
1 67061U 25295C   26198.59583541 -.00000102  00000+0  47852-4 0  9992
2 67061  50.0003 276.5839 0001149 197.8948 162.1883 13.29325766 29544
HULIANWANG DIGUI-122    
1 67062U 25295D   26198.65423745 -.00000082  00000+0  91543-4 0  9992
2 67062  50.0036 276.2921 0001130 198.9451 161.1379 13.29324542 29552
HULIANWANG DIGUI-123    
1 67063U 25295E   26198.57076223 -.00000076  00000+0  10352-3 0  9990
2 67063  50.0037 276.5220 0001048 199.9149 160.1683 13.29324219 29549
